{
    "links": {
        "self": "http://www.neowsapp.com/rest/v1/neo/3667490?api_key=iIulBulltgU6a56xZRHN4H3l9WmuAYTsLGpBGhQ2"
    },
    "id": "3667490",
    "neo_reference_id": "3667490",
    "name": "(2014 GB50)",
    "designation": "2014 GB50",
    "nasa_jpl_url": "http://ssd.jpl.nasa.gov/sbdb.cgi?sstr=3667490",
    "absolute_magnitude_h": 20.4,
    "estimated_diameter": {
        "kilometers": {
            "estimated_diameter_min": 0.2210828104,
            "estimated_diameter_max": 0.4943561926
        },
        "meters": {
            "estimated_diameter_min": 221.0828103591,
            "estimated_diameter_max": 494.3561926196
        },
        "miles": {
            "estimated_diameter_min": 0.137374447,
            "estimated_diameter_max": 0.3071786018
        },
        "feet": {
            "estimated_diameter_min": 725.3373275385,
            "estimated_diameter_max": 1621.9035709942
        }
    },
    "is_potentially_hazardous_asteroid": false,
    "close_approach_data": [
        {
            "close_approach_date": "2014-03-09",
            "close_approach_date_full": "2014-Mar-09 16:52",
            "epoch_date_close_approach": 1394383920000,
            "relative_velocity": {
                "kilometers_per_second": "12.5658719201",
                "kilometers_per_hour": "45237.1389124471",
                "miles_per_hour": "28108.5988981258"
            },
            "miss_distance": {
                "astronomical": "0.401604499",
                "lunar": "156.224150111",
                "kilometers": "60079177.63281713",
                "miles": "37331469.897771194"
            },
            "orbiting_body": "Earth"
        }
    ],
    "orbital_data": {
        "orbit_id": "7",
        "orbit_determination_date": "2017-04-06 08:41:36",
        "first_observation_date": "2014-04-09",
        "last_observation_date": "2014-04-26",
        "data_arc_in_days": 17,
        "observations_used": 23,
        "orbit_uncertainty": "7",
        "minimum_orbit_intersection": ".400939",
        "jupiter_tisserand_invariant": "3.374",
        "epoch_osculation": "2459000.5",
        "eccentricity": ".4317028268740459",
        "semi_major_axis": "2.27618244243605",
        "inclination": "24.18838378173903",
        "ascending_node_longitude": "188.2966991819806",
        "orbital_period": "1254.321973585664",
        "perihelion_distance": "1.293548047555337",
        "perihelion_argument": "306.9208667714102",
        "aphelion_distance": "3.258816837316763",
        "perihelion_time": "2459194.026201686370",
        "mean_anomaly": "304.456499946395",
        "mean_motion": ".287007648419717",
        "equinox": "J2000",
        "orbit_class": {
            "orbit_class_type": "AMO",
            "orbit_class_description": "Near-Earth asteroid orbits similar to that of 1221 Amor",
            "orbit_class_range": "1.017 AU < q (perihelion) < 1.3 AU"
        }
    },
    "is_sentry_object": false
}